[{"OBJECT_NAME":"PROBA-1","OBJECT_ID":"2001-049B","EPOCH":"2026-03-09T22:57:25.772256","MEAN_MOTION":15.07031721,"ECCENTRICITY":0.00568356,"INCLINATION":97.9638,"RA_OF_ASC_NODE":74.0417,"ARG_OF_PERICENTER":98.1776,"MEAN_ANOMALY":262.5903,"EPHEMERIS_TYPE":0,"CLASSIFICATION_TYPE":"U","NORAD_CAT_ID":26958,"ELEMENT_SET_NO":999,"REV_AT_EPOCH":32867,"BSTAR":0.00028513173,"MEAN_MOTION_DOT":4.362e-5,"MEAN_MOTION_DDOT":0},{"OBJECT_NAME":"STARLINK-4705","OBJECT_ID":"2022-107Z","EPOCH":"2026-03-09T17:20:21.628320","MEAN_MOTION":15.08835563,"ECCENTRICITY":0.00020718,"INCLINATION":53.2164,"RA_OF_ASC_NODE":253.6179,"ARG_OF_PERICENTER":131.7665,"MEAN_ANOMALY":228.3505,"EPHEMERIS_TYPE":0,"CLASSIFICATION_TYPE":"U","NORAD_CAT_ID":53723,"ELEMENT_SET_NO":999,"REV_AT_EPOCH":19456,"BSTAR":0.00029867275,"MEAN_MOTION_DOT":4.468e-5,"MEAN_MOTION_DDOT":0}]
